      2.10          N: GNSS NAV DATA                        RINEX VERSION / TYPE
fic2rin                                 10/01/2018 00:19:58 PGM / RUN BY / DATE
                                                            END OF HEADER
15 18  9 30 14  0  0.0-3.444496542215e-04 1.136868377216e-12 0.000000000000e+00
    6.700000000000e+01-1.209375000000e+01 5.255933216430e-09-2.957033144048e+00
   -6.854534149170e-07 1.078171492554e-02 9.074807167053e-06 5.153568727493e+03
    5.040000000000e+04 3.539025783539e-08-2.999855645492e+00-1.378357410431e-07
    9.285599395972e-01 1.864687500000e+02 7.088169459624e-01-8.202841681281e-09
   -4.150172871358e-10 1.000000000000e+00 2.021000000000e+03 0.000000000000e+00
    2.400000000000e+00 0.000000000000e+00-1.071020960808e-08 6.700000000000e+01
    4.320600000000e+04 4.000000000000e+00
19 18  9 30 14  0  0.0-3.979196771979e-04 3.524291969370e-12 0.000000000000e+00
    5.200000000000e+01-8.634375000000e+01 4.129814880509e-09 7.126894802975e-01
   -4.470348358154e-06 9.610519045964e-03 8.223578333855e-06 5.153605112076e+03
    5.040000000000e+04-1.154839992523e-07 3.268038722588e-01 6.146728992462e-08
    9.811741028454e-01 2.342187500000e+02 1.292158356428e+00-8.089622679541e-09
   -1.392915163365e-10 1.000000000000e+00 2.021000000000e+03 0.000000000000e+00
    2.400000000000e+00 0.000000000000e+00-1.536682248116e-08 5.200000000000e+01
    4.320600000000e+04 4.000000000000e+00
11 18  9 30 14  0  0.0-7.139053195715e-04 3.069544618484e-12 0.000000000000e+00
    5.600000000000e+01-5.637500000000e+01 5.704880488314e-09 1.398916997640e+00
   -3.198161721230e-06 1.697729970329e-02 8.607283234596e-06 5.153662675858e+03
    5.040000000000e+04 1.769512891769e-07 8.458636777774e-01-4.172325134277e-07
    9.067531238729e-01 1.851250000000e+02 1.822729912589e+00-8.572499936174e-09
    2.103659054415e-10 1.000000000000e+00 2.021000000000e+03 0.000000000000e+00
    2.400000000000e+00 0.000000000000e+00-1.210719347000e-08 5.600000000000e+01
    4.320600000000e+04 4.000000000000e+00
17 18  9 30 14  0  0.0-4.975451156497e-05 4.433786671143e-12 0.000000000000e+00
    5.100000000000e+01-7.987500000000e+01 4.028739241732e-09-2.044082322382e+00
   -3.997236490250e-06 1.263648166787e-02 7.461756467819e-06 5.153621076584e+03
    5.040000000000e+04 1.471489667892e-07 2.801019432102e-01 1.043081283569e-07
    9.835694190771e-01 2.420000000000e+02-1.772951139126e+00-7.703535168875e-09
    4.643050544549e-12 1.000000000000e+00 2.021000000000e+03 0.000000000000e+00
    2.400000000000e+00 0.000000000000e+00-1.117587089539e-08 5.100000000000e+01
    4.320600000000e+04 4.000000000000e+00
31 18  9 30 14  0  0.0 9.000161662698e-05-2.614797267597e-12 0.000000000000e+00
    8.800000000000e+01 8.228125000000e+01 4.257320191617e-09 1.186017022758e+00
    4.492700099945e-06 8.909726398997e-03 8.592382073402e-06 5.153754343033e+03
    5.040000000000e+04 2.048909664154e-08-1.835742725436e+00 2.086162567139e-07
    9.618751997687e-01 2.113437500000e+02-1.059884265463e-01-7.956760002420e-09
   -6.785996949726e-12 1.000000000000e+00 2.021000000000e+03 0.000000000000e+00
    2.400000000000e+00 0.000000000000e+00-1.350417733192e-08 8.800000000000e+01
    4.320600000000e+04 4.000000000000e+00
18 18  9 30 14  0  0.0 6.305146962404e-05 4.206412995700e-12 0.000000000000e+00
    7.200000000000e+01-2.815625000000e+01 4.691623996400e-09 1.824193815212e+00
   -1.721084117889e-06 1.498964137863e-02 9.182840585709e-06 5.153631031036e+03
    5.040000000000e+04 1.862645149231e-09 1.231261544540e+00-3.948807716370e-07
    9.508805336138e-01 1.971250000000e+02 1.352874064909e+00-7.999976088258e-09
    3.353711124101e-10 1.000000000000e+00 2.021000000000e+03 0.000000000000e+00
    2.400000000000e+00 0.000000000000e+00-6.519258022308e-09 7.200000000000e+01
    4.320600000000e+04 4.000000000000e+00
10 18  9 30 14  0  0.0 1.783859916031e-04-2.842170943040e-12 0.000000000000e+00
    9.500000000000e+01-9.531250000000e+00 4.870560021232e-09 7.319205610292e-02
   -6.463378667831e-07 3.820922342129e-03 6.513670086861e-06 5.153659051895e+03
    5.040000000000e+04 3.725290298462e-09 2.320935959864e+00 5.587935447693e-09
    9.616682948760e-01 2.521875000000e+02-2.807040652236e+00-8.234271561891e-09
   -4.250177036933e-11 1.000000000000e+00 2.021000000000e+03 0.000000000000e+00
    2.400000000000e+00 0.000000000000e+00 1.862645149231e-09 9.500000000000e+01
    4.320600000000e+04 4.000000000000e+00
27 18  9 30 14  0  0.0 3.396188840270e-04-4.092726157978e-12 0.000000000000e+00
    1.000000000000e+02-7.587500000000e+01 4.148744240422e-09-2.035886827087e+00
   -4.148110747337e-06 6.052792421542e-03 6.953254342079e-06 5.153697387695e+03
    5.040000000000e+04 5.401670932770e-08 2.253560698649e-01-1.192092895508e-07
    9.782242879967e-01 2.542812500000e+02 4.485314496724e-01-7.933901907432e-09
    2.821546100149e-11 1.000000000000e+00 2.021000000000e+03 0.000000000000e+00
    2.400000000000e+00 0.000000000000e+00 1.862645149231e-09 1.000000000000e+02
    4.320600000000e+04 4.000000000000e+00
20 18  9 30 14  0  0.0 5.165934562683e-04 5.684341886081e-13 0.000000000000e+00
    5.400000000000e+01-7.468750000000e+00 5.636663361083e-09 1.915884647440e+00
   -3.948807716370e-07 4.321215557866e-03 6.105750799179e-06 5.153668149948e+03
    5.040000000000e+04 6.146728992462e-08 2.210608339819e+00-8.381903171539e-08
    9.290044399410e-01 2.406250000000e+02 2.113992636302e+00-8.557499311338e-09
    1.035757429169e-11 1.000000000000e+00 2.021000000000e+03 0.000000000000e+00
    2.400000000000e+00 0.000000000000e+00-8.381903171539e-09 5.400000000000e+01
    4.320600000000e+04 4.000000000000e+00
28 18  9 30 14  0  0.0 7.472778670490e-04 1.932676241267e-12 0.000000000000e+00
    8.300000000000e+01 1.065625000000e+01 4.279821128872e-09-1.135520604591e+00
    9.872019290924e-07 1.959208468907e-02 3.825873136520e-06 5.153686298370e+03
    5.040000000000e+04-2.458691596985e-07-7.300977343812e-01 2.775341272354e-07
    9.846816083986e-01 3.243125000000e+02-1.512318303659e+00-8.368562869948e-09
    1.221479450951e-10 1.000000000000e+00 2.021000000000e+03 0.000000000000e+00
    4.850000000000e+00 0.000000000000e+00-1.117587089539e-08 8.300000000000e+01
    4.320600000000e+04 4.000000000000e+00
10 18  9 30 13 59 44.0 1.783855259418e-04-2.842170943040e-12 0.000000000000e+00
    1.400000000000e+01-9.531250000000e+00 4.870917178966e-09 7.085962047905e-02
   -6.463378667831e-07 3.820927930064e-03 6.513670086861e-06 5.153659048080e+03
    5.038400000000e+04 3.725290298462e-09 2.320936104693e+00 5.587935447693e-09
    9.616682919501e-01 2.521875000000e+02-2.807041901568e+00-8.234271561891e-09
   -4.250177036933e-11 1.000000000000e+00 2.021000000000e+03 0.000000000000e+00
    2.400000000000e+00 0.000000000000e+00 1.862645149231e-09 1.400000000000e+01
    4.734600000000e+04 4.000000000000e+00
 1 18  9 30 13 59 44.0-9.448407217860e-05-4.774847184308e-12 0.000000000000e+00
    3.000000000000e+00-2.200000000000e+01 4.305893643468e-09 2.043291158730e+00
   -1.179054379463e-06 8.131656097248e-03 9.730458259583e-06 5.153666872025e+03
    5.038400000000e+04-2.160668373108e-07 1.281187917659e+00-8.568167686462e-08
    9.724234740266e-01 1.992187500000e+02 6.977918847586e-01-7.842112369743e-09
    3.443000557650e-10 1.000000000000e+00 2.021000000000e+03 0.000000000000e+00
    2.400000000000e+00 0.000000000000e+00 5.587935447693e-09 3.000000000000e+00
    4.782600000000e+04 4.000000000000e+00
 1 18  9 30 15 59 44.0-9.451806545258e-05-4.774847184308e-12 0.000000000000e+00
    4.000000000000e+00-2.806250000000e+01 4.227676099679e-09 3.093431320391e+00
   -1.527369022369e-06 8.131891838275e-03 9.646639227867e-06 5.153666843414e+03
    5.758400000000e+04-4.284083843231e-08 1.281132059058e+00-1.359730958939e-07
    9.724266119859e-01 2.008437500000e+02 6.978344176388e-01-7.708178219420e-09
    3.560862609935e-10 1.000000000000e+00 2.021000000000e+03 0.000000000000e+00
    2.400000000000e+00 0.000000000000e+00 5.587935447693e-09 4.000000000000e+00
    5.040600000000e+04 4.000000000000e+00
10 18  9 30 15 59 44.0 1.783650368452e-04-2.842170943040e-12 0.000000000000e+00
    1.500000000000e+01-9.843750000000e+00 4.970207029073e-09 1.121054272913e+00
   -3.837049007416e-07 3.820883925073e-03 6.591901183128e-06 5.153658967972e+03
    5.758400000000e+04 9.313225746155e-08 2.320876284510e+00 5.587935447693e-09
    9.616680227732e-01 2.520000000000e+02-2.807043531259e+00-8.281773540539e-09
    2.107230631757e-11 1.000000000000e+00 2.021000000000e+03 0.000000000000e+00
    2.400000000000e+00 0.000000000000e+00 1.862645149231e-09 1.500000000000e+01
    5.040600000000e+04 4.000000000000e+00
 2 18  9 30 16  0  0.0-1.673307269812e-05-1.091393642128e-11 0.000000000000e+00
    9.900000000000e+01-3.193750000000e+01 4.622692553700e-09-2.870348657406e+00
   -1.672655344009e-06 1.818248536438e-02 1.015886664391e-05 5.153569437027e+03
    5.760000000000e+04 2.868473529816e-07 1.217363495093e+00-7.078051567078e-08
    9.515425215997e-01 1.726250000000e+02-1.827262357566e+00-7.783538501335e-09
    4.225175995540e-10 1.000000000000e+00 2.021000000000e+03 0.000000000000e+00
    2.400000000000e+00 0.000000000000e+00-2.048909664154e-08 9.900000000000e+01
    5.040600000000e+04 4.000000000000e+00
 8 18  9 30 16  0  0.0-1.169429160655e-04-1.364242052659e-12 0.000000000000e+00
    2.200000000000e+01-7.146875000000e+01 4.326965949786e-09-6.086727762014e-01
   -3.898516297340e-06 3.583085141145e-03 6.392598152161e-06 5.153633029938e+03
    5.760000000000e+04 2.048909664154e-08 2.158398140918e-01-1.247972249985e-07
    9.699988014178e-01 2.592187500000e+02-4.121150694240e-01-8.106409093049e-09
   -3.107272287506e-11 1.000000000000e+00 2.021000000000e+03 0.000000000000e+00
    2.400000000000e+00 0.000000000000e+00 5.122274160385e-09 2.200000000000e+01
    5.040600000000e+04 4.000000000000e+00
